BEIDOU-3 M16 (C35)      
1 43647U 18078A   25141.04747823 -.00000046  00000+0  00000+0 0  9995
2 43647  54.4430 313.6995 0007520  31.4771 328.5656  1.86232210 44850
BEIDOU-3 M15 (C34)      
1 43648U 18078B   25139.56587843 -.00000042  00000+0  00000+0 0  9990
2 43648  54.4402 313.7527 0004640  45.5260 314.5096  1.86232254 44841
BEIDOU-3 G1 (C59)       
1 43683U 18085A   25135.62074543 -.00000265  00000+0  00000+0 0  9995
2 43683   3.0254  98.8918 0004989  11.3655 126.6744  1.00265207 24070
COSMOS 2529 (757)       
1 43687U 18086A   25140.88059472  .00000043  00000+0  00000+0 0  9991
2 43687  64.2916 205.8446 0010917 257.3629 102.5863  2.13101994 50920
BEIDOU-3 M17 (C36)      
1 43706U 18093A   25141.33187443  .00000064  00000+0  00000+0 0  9995
2 43706  54.1834 195.5905 0009556 284.2887  75.6837  1.86228278 44249
BEIDOU-3 M18 (C37)      
1 43707U 18093B   25140.12059344  .00000055  00000+0  00000+0 0  9990
2 43707  54.1841 195.6235 0007400 312.5642  47.4511  1.86229784 44211
GPS BIII-1  (PRN 04)    
1 43873U 18109A   25141.36843104  .00000065  00000+0  00000+0 0  9995
2 43873  55.4534 107.6602 0033378 197.7294 334.5827  2.00569298 47215
BEIDOU-3 IGSO-1 (C38)   
1 44204U 19023A   25141.48964513 -.00000230  00000+0  00000+0 0  9996
2 44204  58.1384  41.6976 0020398 224.1572 266.3068  1.00253401  3283
BEIDOU-2 G8 (C01)       
1 44231U 19027A   25141.60681750 -.00000237  00000+0  00000+0 0  9990
2 44231   1.6241  75.0113 0004588 258.0432 269.4968  1.00272627 22157
COSMOS 2534 (758)       
1 44299U 19030A   25140.73024752  .00000043  00000+0  00000+0 0  9998
2 44299  64.3648 205.8348 0012518 278.0227 100.9189  2.13102281 46565
BEIDOU-3 IGSO-2 (C39)   
1 44337U 19035A   25140.93818009 -.00000060  00000+0  00000+0 0  9994
2 44337  55.2057 162.3065 0035975 210.1508 323.9464  1.00279352 21739
GPS BIII-2  (PRN 18)    
1 44506U 19056A   25141.00727944 -.00000060  00000+0  00000+0 0  9991
2 44506  55.7897 346.7105 0051404 192.9725 338.8662  2.00561686 42205
BEIDOU-3 M24 (C46)      
1 44542U 19061A   25141.26536384  .00000064  00000+0  00000+0 0  9994
2 44542  54.4110 195.9460 0007659 353.4275   6.6409  1.86229034 38490
BEIDOU-3 M23 (C45)      
1 44543U 19061B   25141.52359649  .00000066  00000+0  00000+0 0  9993
2 44543  54.4096 195.9059 0004970 332.8267 113.1006  1.86229138 38507
EUTELSAT 5 WEST B (EGN*)
1 44624U 19067A   25141.58895433 -.00000033  00000+0  00000+0 0  9996
2 44624   0.0652 347.5064 0002968  68.3653  30.6336  1.00273279 20510
BEIDOU-3 IGSO-3 (C40)   
1 44709U 19073A   25139.80493937 -.00000191  00000+0  00000+0 0  9997
2 44709  55.4763 285.1383 0044438 182.4790 177.4405  1.00253807 20512
BEIDOU-3 M22 (C44)      
1 44793U 19078A   25141.10783268 -.00000047  00000+0  00000+0 0  9990
2 44793  54.2901 313.5879 0006582  39.6262 320.4195  1.86232080 37346
BEIDOU-3 M21 (C43)      
1 44794U 19078B   25139.62981260 -.00000042  00000+0  00000+0 0  9992
2 44794  54.2646 313.6086 0004549  38.0002 322.0295  1.86227741 37325
COSMOS 2544 (759)       
1 44850U 19088A   25141.19605540  .00000028  00000+0  00000+0 0  9998
2 44850  65.3508  86.8344 0014240 261.9737  97.8515  2.13101935 42364
BEIDOU-3 M19 (C41)      
1 44864U 19090A   25141.15305399 -.00000008  00000+0  00000+0 0  9990
2 44864  56.2126  75.7849 0018855 291.2364 203.7320  1.86231482 36937
BEIDOU-3 M20 (C42)      
1 44865U 19090B   25141.58701608 -.00000012  00000+0  00000+0 0  9996
2 44865  56.2147  75.8044 0016709 304.2154 211.3619  1.86231369 36915
BEIDOU-3 G2 (C60)       
1 45344U 20017A   25140.78600117 -.00000132  00000+0  00000+0 0  9997
2 45344   2.8260  39.8654 0002352   6.1676 195.6566  1.00271085 19320
COSMOS 2545 (760)       
1 45358U 20018A   25140.92336231 -.00000019  00000+0  00000+0 0  9996
2 45358  64.5849 326.1759 0007318 238.2489 121.6999  2.13102483 40309
BEIDOU-3 G3 (C61)       
1 45807U 20040A   25141.39764056 -.00000345  00000+0  00000+0 0  9994
2 45807   1.4987  63.4215 0002148 317.3230 112.2568  1.00273276 18147
GPS BIII-3  (PRN 23)    
1 45854U 20041A   25141.60225321 -.00000065  00000+0  00000+0 0  9997
2 45854  56.3965  44.1771 0052532 199.2501 345.9054  2.00566958 36189
GALAXY 30 (WAAS/PRN 135)
1 46114U 20056C   25141.56514009  .00000046  00000+0  00000+0 0  9990
2 46114   0.0142 346.3996 0002250  81.2710 250.2444  1.00272711 17362
COSMOS 2547 (705K)      
1 46805U 20075A   25141.10948116  .00000045  00000+0  00000+0 0  9997
2 46805  64.5949 205.5642 0008495 239.0473 120.9407  2.13100323 35556
GPS BIII-4  (PRN 14)    
1 46826U 20078A   25136.42864714  .00000020  00000+0  00000+0 0  9996
2 46826  54.0676 226.8749 0058623 200.9920 177.8876  2.00558349 33556
GPS BIII-5  (PRN 11)    
1 48859U 21054A   25140.37021626 -.00000063  00000+0  00000+0 0  9993
2 48859  55.3220 348.2309 0019166 226.9610 308.3242  2.00565385 28872
QZS-1R (QZSS/PRN 196)   
1 49336U 21096A   25141.51659709 -.00000202  00000+0  00000+0 0  9991
2 49336  36.6489  85.4196 0755027 271.1394 204.9810  1.00263373 13080
GSAT0223 (GALILEO 27)   
1 49809U 21116A   25140.27302716 -.00000065  00000+0  00000+0 0  9991
2 49809  57.2648 352.2825 0000767 150.3889  29.3351  1.70475645 21482
GSAT0224 (GALILEO 28)   
1 49810U 21116B   25139.50958559 -.00000065  00000+0  00000+0 0  9999
2 49810  57.2666 352.3015 0000671 105.2360  78.5027  1.70475743 21499
COSMOS 2557 (706K)      
1 52984U 22075A   25141.27632768 -.00000022  00000+0  00000+0 0  9991
2 52984  64.5204 328.2629 0010483 281.3286  78.5763  2.13102027 22366
COSMOS 2559 (707K)      
1 54031U 22130A   25141.09498675 -.00000021  00000+0  00000+0 0  9994
2 54031  64.4932 328.3657 0011342 176.0228 184.0092  2.13101401 20339
COSMOS 2564 (761)       
1 54377U 22161A   25141.40924110  .00000047  00000+0  00000+0 0  9991
2 54377  64.7366 205.7197 0011118 221.9631 138.0232  2.13101970 19280
GPS BIII-6  (PRN 28)    
1 55268U 23009A   25141.22435066  .00000106  00000+0  00000+0 0  9996
2 55268  55.0930 163.9124 0003185 326.1084 144.1801  2.00570441 17388
BEIDOU-3 G4 (C62)       
1 56564U 23066A   25141.62537569 -.00000103  00000+0  00000+0 0  9992
2 56564   1.2884 291.9269 0006022 179.3721 153.3891  1.00271889  7462
NVS-01 (IRNSS-1J)       
1 56759U 23076A   25141.53216222 -.00000329  00000+0  00000+0 0  9999
2 56759   3.1320 257.8983 0004213  45.1219 257.4858  1.00266863  7184
COSMOS 2569 (703K)      
1 57517U 23114A   25141.42387431  .00000023  00000+0  00000+0 0  9994
2 57517  65.0825  85.8544 0012054 296.9936  62.8699  2.13103674 13914
BEIDOU-3 M28 (C50)      
1 58654U 23207A   25141.32059841 -.00000011  00000+0  00000+0 0  9998
2 58654  55.4015  75.5602 0003992 320.2084  39.7473  1.86229713  9547
BEIDOU-3 M26 (C48)      
1 58655U 23207B   25141.12005226 -.00000010  00000+0  00000+0 0  9994
2 58655  55.4033  75.5529 0004255 298.5379  61.4048  1.86231573  9528
GSAT0225 (GALILEO 29)   
1 59598U 24079A   25141.21927321  .00000061  00000+0  00000+0 0  9993
2 59598  54.8811 112.0453 0002718 262.4045 242.7002  1.70474251  6635
GSAT0227 (GALILEO 30)   
1 59600U 24079C   25140.57957660  .00000062  00000+0  00000+0 0  9995
2 59600  54.8760 112.0626 0000737   3.8593 356.1181  1.70474290  6673
GSAT0232 (GALILEO 32)   
1 61182U 24167A   25141.61714174  .00000005  00000+0  00000+0 0  9995
2 61182  55.3116 232.0574 0004236 213.2556 258.5539  1.70474227  4200
GSAT0226 (GALILEO 31)   
1 61183U 24167B   25141.45074235  .00000005  00000+0  00000+0 0  9995
2 61183  55.3105 232.0676 0002255 193.3186 288.9487  1.70474342  4171
BEIDOU-3 M25 (C47)      
1 61186U 24168B   25141.47242292 -.00000048  00000+0  00000+0 0  9999
2 61186  54.8184 315.8214 0003328 300.7821  53.2865  1.86229918  4486
BEIDOU-3 M27 (C49)      
1 61187U 24168C   25141.42589363 -.00000048  00000+0  00000+0 0  9998
2 61187  54.8141 315.8074 0001990  32.5300  65.2247  1.86230002  1962
GPS BIII-7  (PRN 01)    
1 62339U 24242A   25140.46503186 -.00000065  00000+0  00000+0 0  9992
2 62339  54.9789 350.0865 0005363 346.7504  14.0436  2.00558048  3384
NVS-02 (IRNSS-1K)       
1 62850U 25020A   25112.01547669  .00008238 -14398-6  63830-3 0  9995
2 62850  21.0665  52.5431 7387800 232.8801  34.8653  2.17491987  1806
COSMOS 2584 (704K)      
1 63130U 25042A   25141.31037523  .00000024  00000+0  00000+0 0  9997
2 63130  64.8639  86.1468 0006809 233.4080 126.5161  2.13103777  1696
